{
  "type": "FeatureCollection",
  "features": [
    {
      "type": "Feature",
      "properties": {
        "norad_id": 66821,
        "name": "STARLINK-35966",
        "group": "last-30-days",
        "lat": 46.70919498652739,
        "lon": -42.85968402372836,
        "alt_km": 406.3019295899485,
        "timestamp": "2025-12-26T19:22:37.606187+00:00",
        "meta_object_name": "STARLINK-35966",
        "meta_object_id": "2025-280A",
        "meta_epoch": "2025-12-26T08:00:01.000224",
        "meta_mean_motion": 15.52498141,
        "meta_eccentricity": 0.00032095,
        "meta_inclination": 70.0004,
        "meta_ra_of_asc_node": 161.183,
        "meta_arg_of_pericenter": 267.437,
        "meta_mean_anomaly": 93.1401,
        "meta_ephemeris_type": 0,
        "meta_classification_type": "U",
        "meta_norad_cat_id": 66821,
        "meta_element_set_no": 999,
        "meta_rev_at_epoch": 508,
        "meta_bstar": 0.00036399095,
        "meta_mean_motion_dot": 0.00022271,
        "meta_mean_motion_ddot": 0,
        "tle_line1": "1 66821U 25280A   25360.33334491  .00022271  00000+0  36399-3 0  9992",
        "tle_line2": "2 66821  70.0004 161.1830 0003209 267.4370  93.1401 15.52498141  5080"
      },
      "geometry": {
        "type": "Point",
        "coordinates": [
          -42.85968402372836,
          46.70919498652739
        ]
      }
    },
    {
      "type": "Feature",
      "properties": {
        "norad_id": 66822,
        "name": "STARLINK-35958",
        "group": "last-30-days",
        "lat": 44.73202107369573,
        "lon": -41.26760081922317,
        "alt_km": 406.0984347090043,
        "timestamp": "2025-12-26T19:22:37.606202+00:00",
        "meta_object_name": "STARLINK-35958",
        "meta_object_id": "2025-280B",
        "meta_epoch": "2025-12-25T21:09:55.876608",
        "meta_mean_motion": 15.52524711,
        "meta_eccentricity": 0.0003381,
        "meta_inclination": 70.0003,
        "meta_ra_of_asc_node": 162.418,
        "meta_arg_of_pericenter": 268.924,
        "meta_mean_anomaly": 91.156,
        "meta_ephemeris_type": 0,
        "meta_classification_type": "U",
        "meta_norad_cat_id": 66822,
        "meta_element_set_no": 999,
        "meta_rev_at_epoch": 497,
        "meta_bstar": 0.0016095,
        "meta_mean_motion_dot": 0.00100126,
        "meta_mean_motion_ddot": 0,
        "tle_line1": "1 66822U 25280B   25359.88189672  .00100126  00000+0  16095-2 0  9996",
        "tle_line2": "2 66822  70.0003 162.4180 0003381 268.9240  91.1560 15.52524711  4979"
      },
      "geometry": {
        "type": "Point",
        "coordinates": [
          -41.26760081922317,
          44.73202107369573
        ]
      }
    },
    {
      "type": "Feature",
      "properties": {
        "norad_id": 66823,
        "name": "STARLINK-35957",
        "group": "last-30-days",
        "lat": 43.24750622661433,
        "lon": -40.15505201438657,
        "alt_km": 406.48151575793963,
        "timestamp": "2025-12-26T19:22:37.606212+00:00",
        "meta_object_name": "STARLINK-35957",
        "meta_object_id": "2025-280C",
        "meta_epoch": "2025-12-26T14:10:01.565760",
        "meta_mean_motion": 15.52632526,
        "meta_eccentricity": 0.00030942,
        "meta_inclination": 70.0004,
        "meta_ra_of_asc_node": 160.4746,
        "meta_arg_of_pericenter": 279.7471,
        "meta_mean_anomaly": 80.3366,
        "meta_ephemeris_type": 0,
        "meta_classification_type": "U",
        "meta_norad_cat_id": 66823,
        "meta_element_set_no": 999,
        "meta_rev_at_epoch": 508,
        "meta_bstar": 0.0019580384,
        "meta_mean_motion_dot": 0.00122665,
        "meta_mean_motion_ddot": 0,
        "tle_line1": "1 66823U 25280C   25360.59029590  .00122665  00000+0  19580-2 0  9993",
        "tle_line2": "2 66823  70.0004 160.4746 0003094 279.7471  80.3366 15.52632526  5085"
      },
      "geometry": {
        "type": "Point",
        "coordinates": [
          -40.15505201438657,
          43.24750622661433
        ]
      }
    },
    {
      "type": "Feature",
      "properties": {
        "norad_id": 66824,
        "name": "STARLINK-35896",
        "group": "last-30-days",
        "lat": 41.61270390385641,
        "lon": -38.99733915727356,
        "alt_km": 407.23437397219186,
        "timestamp": "2025-12-26T19:22:37.606223+00:00",
        "meta_object_name": "STARLINK-35896",
        "meta_object_id": "2025-280D",
        "meta_epoch": "2025-12-26T14:09:31.216896",
        "meta_mean_motion": 15.52506367,
        "meta_eccentricity": 0.00033858,
        "meta_inclination": 70.0005,
        "meta_ra_of_asc_node": 160.4736,
        "meta_arg_of_pericenter": 276.393,
        "meta_mean_anomaly": 83.6871,
        "meta_ephemeris_type": 0,
        "meta_classification_type": "U",
        "meta_norad_cat_id": 66824,
        "meta_element_set_no": 999,
        "meta_rev_at_epoch": 508,
        "meta_bstar": 0.00067669782,
        "meta_mean_motion_dot": 0.00041664,
        "meta_mean_motion_ddot": 0,
        "tle_line1": "1 66824U 25280D   25360.58994464  .00041664  00000+0  67670-3 0  9997",
        "tle_line2": "2 66824  70.0005 160.4736 0003385 276.3930  83.6871 15.52506367  5082"
      },
      "geometry": {
        "type": "Point",
        "coordinates": [
          -38.99733915727356,
          41.61270390385641
        ]
      }
    },
    {
      "type": "Feature",
      "properties": {
        "norad_id": 66825,
        "name": "STARLINK-35476",
        "group": "last-30-days",
        "lat": 39.89881131802898,
        "lon": -37.85403223297916,
        "alt_km": 407.4093716356674,
        "timestamp": "2025-12-26T19:22:37.606233+00:00",
        "meta_object_name": "STARLINK-35476",
        "meta_object_id": "2025-280E",
        "meta_epoch": "2025-12-26T14:09:01.477152",
        "meta_mean_motion": 15.52506322,
        "meta_eccentricity": 0.000348,
        "meta_inclination": 70.0004,
        "meta_ra_of_asc_node": 160.4718,
        "meta_arg_of_pericenter": 273.1136,
        "meta_mean_anomaly": 86.9653,
        "meta_ephemeris_type": 0,
        "meta_classification_type": "U",
        "meta_norad_cat_id": 66825,
        "meta_element_set_no": 999,
        "meta_rev_at_epoch": 508,
        "meta_bstar": 0.00065432958,
        "meta_mean_motion_dot": 0.00040274,
        "meta_mean_motion_ddot": 0,
        "tle_line1": "1 66825U 25280E   25360.58960043  .00040274  00000+0  65433-3 0  9995",
        "tle_line2": "2 66825  70.0004 160.4718 0003480 273.1136  86.9653 15.52506322  5086"
      },
      "geometry": {
        "type": "Point",
        "coordinates": [
          -37.85403223297916,
          39.89881131802898
        ]
      }
    },
    {
      "type": "Feature",
      "properties": {
        "norad_id": 66826,
        "name": "STARLINK-35898",
        "group": "last-30-days",
        "lat": 38.297889002684826,
        "lon": -36.84251340955669,
        "alt_km": 407.14565734728785,
        "timestamp": "2025-12-26T19:22:37.606243+00:00",
        "meta_object_name": "STARLINK-35898",
        "meta_object_id": "2025-280F",
        "meta_epoch": "2025-12-26T14:08:34.515168",
        "meta_mean_motion": 15.52530924,
        "meta_eccentricity": 0.00029755,
        "meta_inclination": 70.0004,
        "meta_ra_of_asc_node": 160.4704,
        "meta_arg_of_pericenter": 270.1466,
        "meta_mean_anomaly": 89.938,
        "meta_ephemeris_type": 0,
        "meta_classification_type": "U",
        "meta_norad_cat_id": 66826,
        "meta_element_set_no": 999,
        "meta_rev_at_epoch": 508,
        "meta_bstar": 0.001667139,
        "meta_mean_motion_dot": 0.00103786,
        "meta_mean_motion_ddot": 0,
        "tle_line1": "1 66826U 25280F   25360.58928837  .00103786  00000+0  16671-2 0  9998",
        "tle_line2": "2 66826  70.0004 160.4704 0002975 270.1466  89.9380 15.52530924  5088"
      },
      "geometry": {
        "type": "Point",
        "coordinates": [
          -36.84251340955669,
          38.297889002684826
        ]
      }
    },
    {
      "type": "Feature",
      "properties": {
        "norad_id": 66827,
        "name": "STARLINK-35959",
        "group": "last-30-days",
        "lat": 36.50066968018077,
        "lon": -35.76456392700476,
        "alt_km": 407.75633221484804,
        "timestamp": "2025-12-26T19:22:37.606253+00:00",
        "meta_object_name": "STARLINK-35959",
        "meta_object_id": "2025-280G",
        "meta_epoch": "2025-12-26T14:08:03.569280",
        "meta_mean_motion": 15.52525566,
        "meta_eccentricity": 0.00033638,
        "meta_inclination": 70.0004,
        "meta_ra_of_asc_node": 160.4691,
        "meta_arg_of_pericenter": 276.2436,
        "meta_mean_anomaly": 83.8368,
        "meta_ephemeris_type": 0,
        "meta_classification_type": "U",
        "meta_norad_cat_id": 66827,
        "meta_element_set_no": 999,
        "meta_rev_at_epoch": 508,
        "meta_bstar": 0.0014157521,
        "meta_mean_motion_dot": 0.00087921,
        "meta_mean_motion_ddot": 0,
        "tle_line1": "1 66827U 25280G   25360.58893020  .00087921  00000+0  14158-2 0  9994",
        "tle_line2": "2 66827  70.0004 160.4691 0003363 276.2436  83.8368 15.52525566  5085"
      },
      "geometry": {
        "type": "Point",
        "coordinates": [
          -35.76456392700476,
          36.50066968018077
        ]
      }
    }
  ]
}